CCSDS_OMM_VERS = 2.0
CREATION_DATE  = 
ORIGINATOR     = 

OBJECT_NAME    = CZ-2C R/B
OBJECT_ID      = 2022-132E
CENTER_NAME    = EARTH
REF_FRAME      = TEME
TIME_SYSTEM    = UTC
MEAN_ELEMENT_THEORY = SGP/SGP4

EPOCH          = 2026-01-15T13:30:02.674944
MEAN_MOTION    = 15.57189606
ECCENTRICITY   = .00169507
INCLINATION    = 97.2945
RA_OF_ASC_NODE = 17.4683
ARG_OF_PERICENTER = 290.9070
MEAN_ANOMALY   = 69.0371

EPHEMERIS_TYPE = 0
CLASSIFICATION_TYPE = U
NORAD_CAT_ID   = 54039
ELEMENT_SET_NO = 999
REV_AT_EPOCH   = 18209
BSTAR          = .25935409E-3
MEAN_MOTION_DOT = .18881E-3
MEAN_MOTION_DDOT = 0

CCSDS_OMM_VERS = 2.0
CREATION_DATE  = 
ORIGINATOR     = 

OBJECT_NAME    = GSLV R/B
OBJECT_ID      = 2022-138AN
CENTER_NAME    = EARTH
REF_FRAME      = TEME
TIME_SYSTEM    = UTC
MEAN_ELEMENT_THEORY = SGP/SGP4

EPOCH          = 2026-01-15T11:54:32.542272
MEAN_MOTION    = 14.96335566
ECCENTRICITY   = .00212262
INCLINATION    = 87.3829
RA_OF_ASC_NODE = 184.1669
ARG_OF_PERICENTER = 351.2520
MEAN_ANOMALY   = 8.8338

EPHEMERIS_TYPE = 0
CLASSIFICATION_TYPE = U
NORAD_CAT_ID   = 54149
ELEMENT_SET_NO = 999
REV_AT_EPOCH   = 17597
BSTAR          = .1177694E-3
MEAN_MOTION_DOT = .1366E-4
MEAN_MOTION_DDOT = 0

CCSDS_OMM_VERS = 2.0
CREATION_DATE  = 
ORIGINATOR     = 

OBJECT_NAME    = XRISM
OBJECT_ID      = 2023-137A
CENTER_NAME    = EARTH
REF_FRAME      = TEME
TIME_SYSTEM    = UTC
MEAN_ELEMENT_THEORY = SGP/SGP4

EPOCH          = 2026-01-15T01:43:31.397952
MEAN_MOTION    = 15.10764447
ECCENTRICITY   = .0007945
INCLINATION    = 31.0022
RA_OF_ASC_NODE = 270.2749
ARG_OF_PERICENTER = 223.5022
MEAN_ANOMALY   = 136.4990

EPHEMERIS_TYPE = 0
CLASSIFICATION_TYPE = U
NORAD_CAT_ID   = 57800
ELEMENT_SET_NO = 999
REV_AT_EPOCH   = 12967
BSTAR          = .15668388E-3
MEAN_MOTION_DOT = .2761E-4
MEAN_MOTION_DDOT = 0

CCSDS_OMM_VERS = 2.0
CREATION_DATE  = 
ORIGINATOR     = 

OBJECT_NAME    = ACS3
OBJECT_ID      = 2024-077B
CENTER_NAME    = EARTH
REF_FRAME      = TEME
TIME_SYSTEM    = UTC
MEAN_ELEMENT_THEORY = SGP/SGP4

EPOCH          = 2026-01-15T09:16:04.332864
MEAN_MOTION    = 13.87155310
ECCENTRICITY   = .00592452
INCLINATION    = 97.2416
RA_OF_ASC_NODE = 328.4710
ARG_OF_PERICENTER = 252.0699
MEAN_ANOMALY   = 107.3999

EPHEMERIS_TYPE = 0
CLASSIFICATION_TYPE = U
NORAD_CAT_ID   = 59588
ELEMENT_SET_NO = 999
REV_AT_EPOCH   = 8680
BSTAR          = .62637839E-2
MEAN_MOTION_DOT = .7429E-4
MEAN_MOTION_DDOT = 0

CCSDS_OMM_VERS = 2.0
CREATION_DATE  = 
ORIGINATOR     = 

OBJECT_NAME    = SZ-21 MODULE
OBJECT_ID      = 2025-246C
CENTER_NAME    = EARTH
REF_FRAME      = TEME
TIME_SYSTEM    = UTC
MEAN_ELEMENT_THEORY = SGP/SGP4

EPOCH          = 2026-01-15T10:59:01.642560
MEAN_MOTION    = 15.64523877
ECCENTRICITY   = .00021529
INCLINATION    = 41.4740
RA_OF_ASC_NODE = 170.0495
ARG_OF_PERICENTER = 177.3798
MEAN_ANOMALY   = 182.7054

EPHEMERIS_TYPE = 0
CLASSIFICATION_TYPE = U
NORAD_CAT_ID   = 66515
ELEMENT_SET_NO = 999
REV_AT_EPOCH   = 972
BSTAR          = .243147E-3
MEAN_MOTION_DOT = .23845E-3
MEAN_MOTION_DDOT = 0

