CZ-2C R/B               
1 54039U 22132E   26015.56253096  .00018881  00000+0  25935-3 0  9993
2 54039  97.2945  17.4683 0016950 290.9070  69.0371 15.57189606182090
GSLV R/B                
1 54149U 22138AN  26015.49620998  .00001366  00000+0  11777-3 0  9991
2 54149  87.3829 184.1669 0021226 351.2520   8.8338 14.96335566175975
XRISM                   
1 57800U 23137A   26015.07189118  .00002761  00000+0  15668-3 0  9999
2 57800  31.0022 270.2749 0007945 223.5022 136.4990 15.10764447129678
ACS3                    
1 59588U 24077B   26015.38616126  .00007429  00000+0  62638-2 0  9990
2 59588  97.2416 328.4710 0059245 252.0699 107.3999 13.87155310 86803
SZ-21 MODULE            
1 66515U 25246C   26015.45765790  .00023845  00000+0  24315-3 0  9998
2 66515  41.4740 170.0495 0002152 177.3798 182.7054 15.64523877  9726
